INTELSAT 36 (IS-36)     
1 41747C 16053A   23165.92060185  .00000069  00000-0  00000-0 0  1656
2 41747   0.0136   5.9774 0001877 345.7925 311.0866  1.00270655    17
INTELSAT 36 (IS-36)     
1 41747C 16053A   23169.92061343  .00000043  00000-0  00000-0 0  1693
2 41747   0.0105   3.3926 0002139 347.7934 315.6236  1.00271213    10
INTELSAT 33E            
1 41748C 16053B   23166.00000000  .00000139  00000-0  00000-0 0  1666
2 41748   0.0157 318.0728 0002072 149.5655 215.3784  1.00273489    19
INTELSAT 33E        [PM]
1 41748C 16053B   23169.68866898  .00000140  00000-0  00000-0 0  1693
2 41748   0.0068 353.6443 0001920  78.0980 142.8230  1.00270807    18
INTELSAT 33E            
1 41748C 16053B   23170.00000000  .00000093  00000-0  00000-0 0  1705
2 41748   0.0064 355.0784 0001928  77.9474 253.9250  1.00270768    14
INTELSAT 32E            
1 41945C 17007B   23166.00000000 -.00000179  00000-0  00000-0 0  1660
2 41945   0.0145  41.9027 0000370 257.9880 279.9350  1.00269750    13
INTELSAT 32E        [PM]
1 41945C 17007B   23166.19821759 -.00000205  00000-0  00000-0 0  1662
2 41945   0.0501 132.9383 0000720 269.2888 249.1569  1.00273737    19
INTELSAT 32E            
1 41945C 17007B   23170.00000000 -.00000173  00000-0  00000-0 0  1704
2 41945   0.0047  27.6705 0000588 290.1852 265.9299  1.00270513    13
INTELSAT 32E        [PM]
1 41945C 17007B   23172.20790509 -.00000182  00000-0  00000-0 0  1720
2 41945   0.0485 166.6407 0000714 246.1016 248.0470  1.00274825    19
INTELSAT 35E            
1 42818C 17041A   23166.00000000 -.00000147  00000-0  00000-0 0  1663
2 42818   0.0110 306.0093 0001073 120.7967 161.7104  1.00270821    13
INTELSAT 35E            
1 42818C 17041A   23170.00000000 -.00004547  00000-0  00000-0 0  1701
2 42818   0.0020 311.3715 0001009 121.8878 159.1787  1.00270216    11
INTELSAT 35E        [PM]
1 42818C 17041A   23170.13936343 -.00000152  00000-0  00000-0 0  1701
2 42818   0.0000   8.1544 0001260  75.1707 199.4205  1.00274619    14
INTELSAT 35E        [PM]
1 42818C 17041A   23171.65447917 -.00000146  00000-0  00000-0 0  1717
2 42818   0.0113 308.3896 0001208 131.2895  30.0158  1.00273526    11
INTELSAT 37E            
1 42950C 17059A   23166.00000000 -.00000008  00000-0  00000-0 0  1665
2 42950   0.0011 341.9831 0002332  98.7712 164.2541  1.00273241    11
INTELSAT 37E            
1 42950C 17059A   23170.00000000 -.00000001  00000-0  00000-0 0  1708
2 42950   0.0010 341.4111 0002186 108.1660 159.3886  1.00272433    10
INTELSAT 37E        [PM]
1 42950C 17059A   23170.62847222 -.00000080  00000-0  00000-0 0  1708
2 42950   0.0002 348.5034 0002156 100.8368  26.4974  1.00272070    13
AZERSPACE 2 (IS-38)     
1 43632C 18074A   23165.92060185  .00000196  00000-0  00000-0 0  1657
2 43632   0.0062  20.3448 0001146  69.5111 189.6033  1.00271938    16
AZERSPACE 2 (IS-38)     
1 43632C 18074A   23169.92061343  .00000228  00000-0  00000-0 0  1698
2 43632   0.0021  17.7237 0001088  71.0422 194.6526  1.00270743    11
HORIZONS-3E             
1 43633C 18074B   23165.92060185 -.00001803  00000-0  00000-0 0  1655
2 43633   0.0017  92.7189 0001379 201.9970 108.6401  1.00268919    10
HORIZONS-3E             
1 43633C 18074B   23169.92061343  .00000155  00000-0  00000-0 0  1698
2 43633   0.0552 173.8462 0001352 118.3708 115.0878  1.00268485    18
INTELSAT 39 (IS-39) [PM]
1 44476C 19049B   23165.53644676 -.00000324  00000-0  00000-0 0  1651
2 44476   0.0000 170.5979 0000660 350.2964 356.7336  1.00270540    19
INTELSAT 39 (IS-39)     
1 44476C 19049B   23165.92060185  .00000135  00000-0  00000-0 0  1650
2 44476   0.0039 334.8685 0000552 341.5186 339.9141  1.00270813    19
INTELSAT 39 (IS-39)     
1 44476C 19049B   23169.92061343  .00000053  00000-0  00000-0 0  1694
2 44476   0.0016 347.3587 0000692 332.6675 340.2233  1.00270942    13
INTELSAT 39 (IS-39) [PM]
1 44476C 19049B   23172.02155093 -.00003433  00000-0  00000-0 0  1725
2 44476   0.0000 344.5792 0000722 347.2955   6.7823  1.00271969    19
GALAXY 30 (G-30)        
1 46114C 20056C   23166.00000000  .00000122  00000-0  00000-0 0  1668
2 46114   0.0049 335.1374 0001814  99.7733  63.0904  1.00270659    12
GALAXY 30 (G-30)        
1 46114C 20056C   23170.00000000  .00000127  00000-0  00000-0 0  1703
2 46114   0.0073  37.2547 0001731  43.6781  61.0042  1.00271867    13
GALAXY 30 (G-30)    [PM]
1 46114C 20056C   23172.87430556  .00000133  00000-0  00000-0 0  1722
2 46114   0.0003 349.2237 0001703  89.5823  20.7212  1.00272748    13
GALAXY 33 (G-33)        
1 54026C 22128A   23166.00000000  .00000174  00000-0  00000-0 0  1668
2 54026   0.0076   6.5574 0001530  77.2627  46.1908  1.00270833    12
GALAXY 33 (G-33)        
1 54026C 22128A   23170.00000000  .00000169  00000-0  00000-0 0  1702
2 54026   0.0048 354.5036 0001490  94.9892  44.4605  1.00272394    14
GALAXY 33 (G-33)    [PM]
1 54026C 22128A   23171.67362269  .00000166  00000-0  00000-0 0  1712
2 54026   0.0035  12.1292 0001513  77.4329 288.5576  1.00270598    10
GALAXY 34 (G-34)        
1 54027C 22128B   23166.00000000  .00000155  00000-0  00000-0 0  1668
2 54027   0.0040   2.2490 0001334  68.8451  62.9403  1.00268719    13
GALAXY 34 (G-34)    [PM]
1 54027C 22128B   23169.89027778  .00000148  00000-0  00000-0 0  1694
2 54027   0.0018 351.5502 0001168  88.9127  17.8745  1.00270743    18
GALAXY 34 (G-34)        
1 54027C 22128B   23170.00000000  .00000125  00000-0  00000-0 0  1705
2 54027   0.0019 351.9245 0001173  88.9316  57.0889  1.00270841    17
GALAXY 34 (G-34)    [PM]
1 54027C 22128B   23172.68194444  .00000358  00000-0  00000-0 0  1727
2 54027   0.0005  24.6427 0001178  65.0490 296.3891  1.00272191    13
GALAXY 31 (G-31)        
1 54243C 22153A   23165.92060185  .00000105  00000-0  00000-0 0  1650
2 54243   0.0042 324.5677 0001975 320.2569 188.5303  1.00270808    14
GALAXY 31 (G-31)        
1 54243C 22153A   23169.92061343  .00000090  00000-0  00000-0 0  1698
2 54243   0.0062 323.4941 0001993 318.5022 195.3009  1.00271865    15
GALAXY 31 (G-31)    [PM]
1 54243C 22153A   23171.18149306 -.00004031  00000-0  00000-0 0  1718
2 54243   0.0014 336.4459 0002007 303.4360 292.5763  1.00271557    10
GALAXY 32 (G-32)        
1 54244C 22153B   23165.92060185 -.00000084  00000-0  00000-0 0  1658
2 54244   0.0133 357.0789 0002045  44.3908 101.8850  1.00271655    17
GALAXY 32 (G-32)        
1 54244C 22153B   23169.92061343 -.00000081  00000-0  00000-0 0  1690
2 54244   0.0169  34.4291 0001914   8.6031 104.2650  1.00271259    19
GALAXY 32 (G-32)    [PM]
1 54244C 22153B   23170.76434028 -.00000084  00000-0  00000-0 0  1703
2 54244   0.0095 356.2700 0001912  45.6671  49.9322  1.00270927    18
GALAXY 32 (G-32)    [PM]
1 54244C 22153B   23172.96075232 -.00000123  00000-0  00000-0 0  1721
2 54244   0.0078  10.8422 0002033  28.6386 125.2559  1.00273075    19
GALAXY 35 (G-35)        
1 54741C 22170A   23165.92060185 -.00000066  00000-0  00000-0 0  1659
2 54741   0.0046   2.8998 0000338 322.8865 175.4676  1.00271435    17
GALAXY 35 (G-35)        
1 54741C 22170A   23169.92061343 -.00000098  00000-0  00000-0 0  1699
2 54741   0.0020 351.7652 0000275 307.1970 206.2315  1.00271094    19
GALAXY 35 (G-35)    [PM]
1 54741C 22170A   23171.08692130 -.00000113  00000-0  00000-0 0  1714
2 54741   0.0004   7.8039 0000304 311.6689 246.7390  1.00273160    17
GALAXY 36 (G-36)        
1 54742C 22170B   23165.92060185 -.00003444  00000-0  00000-0 0  1653
2 54742   0.0010   1.1859 0003081  88.9007  55.2660  1.00272134    18
GALAXY 36 (G-36)        
1 54742C 22170B   23169.92061343 -.00002853  00000-0  00000-0 0  1691
2 54742   0.0034  38.1042 0003043  55.4321  55.7643  1.00271714    13
GALAXY 36 (G-36)    [PM]
1 54742C 22170B   23172.18885417 -.00000065  00000-0  00000-0 0  1726
2 54742   0.0000  32.5129 0003156  59.4425 156.1473  1.00272799    15
INTELSAT 40E            
1 56174C 23052A   23165.92060185 -.00004469  00000-0  00000-0 0  1652
2 56174   0.0440 159.3134 0001745 317.6459  26.3929  1.00271650    15
INTELSAT 40E            
1 56174C 23052A   23169.92061343 -.00003829  00000-0  00000-0 0  1696
2 56174   0.0458 176.5400 0001797 304.0970  26.6637  1.00271934    10
INTELSAT 40E        [PM]
1 56174C 23052A   23171.85000000 -.00000080  00000-0  00000-0 0  1713
2 56174   0.0000  19.4582 0001690 102.0647   2.2593  1.00272720    13
